SL-14 R/B               
1 20511U 90018B   26171.38680630  .00000308  00000+0  35499-4 0  9992
2 20511  82.5212 127.1170 0017580 112.0162 248.2922 14.82217894937794
HST                     
1 20580U 90037B   26171.07700591  .00005529  00000+0  17304-3 0  9998
2 20580  28.4722  60.8244 0001639 173.2571 186.8048 15.30775367789015
SL-16 R/B               
1 20625U 90046B   26171.19996259 -.00000004  00000+0  22302-4 0  9998
2 20625  71.0002  82.6208 0013104 157.1855 202.9852 14.15027279862893
COSMOS 2084             
1 20663U 90055A   26171.44756243  .00001547  00000+0  11896-3 0  9992
2 20663  62.7899 344.9624 0005714 284.4291  75.6175 15.06127213951799
SL-6 R/B(2)             
1 20666U 90055D   26171.44015618  .00001074  00000+0  90726-4 0  9994
2 20666  62.7821 264.3069 0041187   5.6187 354.5366 15.04011698953640
SL-8 R/B                
1 20775U 90078B   26171.41328308  .00021655  00000+0  61081-3 0  9998
2 20775  82.9014 158.7300 0350147  27.6142 334.3195 14.92453204824605
SL-8 R/B                
1 21088U 91006B   26171.34359145  .00000060  00000+0  44162-4 0  9992
2 21088  82.9426  93.6858 0023790 106.2013  12.7453 13.77506117778209
OKEAN-3                 
1 21397U 91039A   26171.46223762  .00002280  00000+0  15706-3 0  9996
2 21397  82.5163 237.2059 0013740 345.9153  14.1688 15.05338596880494
COSMOS 2151             
1 21422U 91042A   26171.46085270  .00001008  00000+0  77872-4 0  9999
2 21422  82.4961 344.5211 0013746  74.2084 286.0655 15.00445546878604
SL-14 R/B               
1 21423U 91042B   26171.39400448  .00000282  00000+0  32727-4 0  9993
2 21423  82.4929 123.8883 0015419 263.2236  96.7224 14.81904128868285
ERS-1                   
1 21574U 91050A   26171.01462127  .00000124  00000+0  54570-4 0  9995
2 21574  98.7796 191.7818 0030736 258.2342 101.5397 14.39518368830451
ARIANE 40 R/B           
1 21610U 91050F   26171.37747017  .00000187  00000+0  68296-4 0  9998
2 21610  98.1874 219.6701 0004341 114.5448 245.6196 14.42958577833801
INTERCOSMOS 25          
1 21819U 91086A   26171.16565212  .00000818  00000+0  16309-3 0  9998
2 21819  82.6051 248.0074 1483953 255.9628  87.2569 12.12199832509100
SL-8 R/B                
1 21876U 92008B   26171.41007464  .00000127  00000+0  11472-3 0  9993
2 21876  82.9260 191.3913 0034036 205.4965 274.9574 13.75977754723541
SL-8 R/B                
1 21938U 92020B   26171.20060138  .00000073  00000+0  59609-4 0  9995
2 21938  82.9305  77.6193 0029528  14.3464 139.5768 13.75549166715226
USA 81                  
1 21949U 92023A   26171.41838044  .00000130  00000+0  40565-4 0  9997
2 21949  85.0074  72.1427 0002754  82.0332 278.1173 14.32398946109491
COSMOS 2219             
1 22219U 92076A   26171.44454852  .00000332  00000+0  19868-3 0  9995
2 22219  71.0582 163.2619 0016764  38.9003 321.3322 14.14101263732906
SL-16 R/B               
1 22220U 92076B   26171.41167333  .00000246  00000+0  14633-3 0  9998
2 22220  71.0008 331.9882 0014765 294.4402  91.0889 14.16873960736385
COSMOS 2221             
1 22236U 92080A   26171.01411493  .00001046  00000+0  89564-4 0  9990
2 22236  82.5028 181.0561 0013519 202.2400 157.8237 14.96539106796091
SL-16 R/B               
1 22285U 92093B   26171.35190208 -.00000172  00000+0 -63842-4 0  9995
2 22285  71.0197 148.7474 0003794 182.3729 177.7377 14.15460016727683
COSMOS 2228             
1 22286U 92094A   26171.42846218  .00001457  00000+0  12222-3 0  9994
2 22286  82.5176 138.9381 0016616 320.7531  39.2486 14.97596173791433
SL-16 R/B               
1 22566U 93016B   26170.97892599  .00000127  00000+0  89392-4 0  9998
2 22566  71.0085   0.3430 0010047 179.5877 180.5256 14.15315458716648
COSMOS 2242             
1 22626U 93024A   26171.45623240  .00001283  00000+0  10930-3 0  9998
2 22626  82.5178 168.4151 0015063 324.6163  35.4058 14.96911702795766
SL-16 R/B               
1 22803U 93059B   26171.38370456 -.00000190  00000+0 -70101-4 0  9998
2 22803  70.9886 154.5628 0015335  48.5639 311.6799 14.17247821694088
ARIANE 40 R/B           
1 22830U 93061H   26171.41749074  .00000118  00000+0  58943-4 0  9999
2 22830  98.4818 238.2075 0010251 346.6122  13.4789 14.32909026708817
COSMOS 2278             
1 23087U 94023A   26171.35871112  .00000000  00000+0  24726-4 0  9997
2 23087  71.0551 320.2888 0010591 239.7350 120.2725 14.14398795659322
SL-16 R/B               
1 23088U 94023B   26171.42975815  .00000104  00000+0  78070-4 0  9997
2 23088  70.9991 215.1217 0002542 184.3948 175.7153 14.15026873660623
SL-16 R/B               
1 23343U 94074B   26171.31654903  .00000276  00000+0  43463-4 0  9995
2 23343  97.6989 197.9072 0005247 240.4341 130.3782 14.79504472702428
SL-16 R/B               
1 23405U 94077B   26171.30060616  .00000248  00000+0  15098-3 0  9999
2 23405  70.9814 136.6122 0003056 325.7412  34.3513 14.15573502630757
ARIANE 40+ R/B          
1 23561U 95021B   26171.44974659  .00000182  00000+0  71985-4 0  9993
2 23561  98.4410 241.4776 0006659 183.5948 187.0806 14.39834891634036
SL-16 R/B               
1 23705U 95058B   26171.45387037  .00000220  00000+0  13689-3 0  9991
2 23705  71.0225 324.4993 0013967 316.0138  43.9873 14.15510419582390
